CTC1_L_00488125-01
1 10248U 26932WT  26075.70035880  .00000000  00000+0  00000-0 0  9997
2 10248 100.2000 297.6000 0000000   0.0000 235.2000 13.29142335    10
CTC1_L_00488125-02
1 10249U 24446NU  26075.70035880  .00000000  00000+0  00000-0 0  9996
2 10249 100.2000 297.6000 0000000   0.0000  55.2000 13.29142335    11
CTC1_L_00488126-01
1 10250U 24658MY  26075.70035880  .00000000  00000+0  00000-0 0  9993
2 10250 100.2000 300.0000 0000000   0.0000 240.0000 13.29142335    16
CTC1_L_00488126-02
1 10251U 24043NQ  26075.70035880  .00000000  00000+0  00000-0 0  9992
2 10251 100.2000 300.0000 0000000   0.0000  60.0000 13.29142335    17
CTC1_L_00488127-01
1 10252U 22817PF  26075.70035880  .00000000  00000+0  00000-0 0  9990
2 10252 100.2000 302.4000 0000000   0.0000 244.8000 13.29142335    16
CTC1_L_00488127-02
1 10253U 23695PC  26075.70035880  .00000000  00000+0  00000-0 0  9996
2 10253 100.2000 302.4000 0000000   0.0000  64.8000 13.29142335    17
CTC1_L_00488128-01
1 10254U 26705GR  26075.70035880  .00000000  00000+0  00000-0 0  9992
2 10254 100.2000 304.8000 0000000   0.0000 249.6000 13.29142335    17
CTC1_L_00488128-02
1 10255U 25499DD  26075.70035880  .00000000  00000+0  00000-0 0  9992
2 10255 100.2000 304.8000 0000000   0.0000  69.6000 13.29142335    18
CTC1_L_00488129-01
1 10256U 24067H   26075.70035880  .00000000  00000+0  00000-0 0  9993
2 10256 100.2000 307.2000 0000000   0.0000 254.4000 13.29142335    10
CTC1_L_00488129-02
1 10257U 25081CB  26075.70035880  .00000000  00000+0  00000-0 0  9991
2 10257 100.2000 307.2000 0000000   0.0000  74.4000 13.29142335    11
CTC1_L_00488130-01
1 10258U 25908LC  26075.70035880  .00000000  00000+0  00000-0 0  9990
2 10258 100.2000 309.6000 0000000   0.0000 259.2000 13.29142335    11
CTC1_L_00488130-02
1 10259U 24461RX  26075.70035880  .00000000  00000+0  00000-0 0  9994
2 10259 100.2000 309.6000 0000000   0.0000  79.2000 13.29142335    12
CTC1_L_00488131-01
1 10260U 22243LI  26075.70035880  .00000000  00000+0  00000-0 0  9992
2 10260 100.2000 312.0000 0000000   0.0000 264.0000 13.29142335    16
CTC1_L_00488131-02
1 10261U 24997XE  26075.70035880  .00000000  00000+0  00000-0 0  9991
2 10261 100.2000 312.0000 0000000   0.0000  84.0000 13.29142335    17
CTC1_L_00488132-01
1 10262U 24061LD  26075.70035880  .00000000  00000+0  00000-0 0  9994
2 10262 100.2000 314.4000 0000000   0.0000 268.8000 13.29142335    16
CTC1_L_00488132-02
1 10263U 23547MQ  26075.70035880  .00000000  00000+0  00000-0 0  9993
2 10263 100.2000 314.4000 0000000   0.0000  88.8000 13.29142335    17
CTC1_L_00488133-01
1 10264U 22041ES  26075.70035880  .00000000  00000+0  00000-0 0  9992
2 10264 100.2000 316.8000 0000000   0.0000 273.6000 13.29142335    18
CTC1_L_00488133-02
1 10265U 24812EO  26075.70035880  .00000000  00000+0  00000-0 0  9991
2 10265 100.2000 316.8000 0000000   0.0000  93.6000 13.29142335    19
CTC1_L_00488134-01
1 10266U 24400FC  26075.70035880  .00000000  00000+0  00000-0 0  9995
2 10266 100.2000 319.2000 0000000   0.0000 278.4000 13.29142335    10
CTC1_L_00488134-02
1 10267U 26079QX  26075.70035880  .00000000  00000+0  00000-0 0  9990
2 10267 100.2000 319.2000 0000000   0.0000  98.4000 13.29142335    11
CTC1_L_00488135-01
1 10268U 23482VA  26075.70035880  .00000000  00000+0  00000-0 0  9996
2 10268 100.2000 321.6000 0000000   0.0000 283.2000 13.29142335    13
CTC1_L_00488135-02
1 10269U 22737G   26075.70035880  .00000000  00000+0  00000-0 0  9999
2 10269 100.2000 321.6000 0000000   0.0000 103.2000 13.29142335    15
CTC1_L_00488136-01
1 10270U 22122OL  26075.70035880  .00000000  00000+0  00000-0 0  9999
2 10270 100.2000 324.0000 0000000   0.0000 288.0000 13.29142335    16
CTC1_L_00488136-02
1 10271U 25887FX  26075.70035880  .00000000  00000+0  00000-0 0  9991
2 10271 100.2000 324.0000 0000000   0.0000 108.0000 13.29142335    18
CTC1_L_00488137-01
1 10272U 23897HM  26075.70035880  .00000000  00000+0  00000-0 0  9991
2 10272 100.2000 326.4000 0000000   0.0000 292.8000 13.29142335    17
CTC1_L_00488137-02
1 10273U 25086DB  26075.70035880  .00000000  00000+0  00000-0 0  9994
2 10273 100.2000 326.4000 0000000   0.0000 112.8000 13.29142335    19
CTC1_L_00488138-01
1 10274U 25291MJ  26075.70035880  .00000000  00000+0  00000-0 0  9993
2 10274 100.2000 328.8000 0000000   0.0000 297.6000 13.29142335    18
CTC1_L_00488138-02
1 10275U 26975NS  26075.70035880  .00000000  00000+0  00000-0 0  9994
2 10275 100.2000 328.8000 0000000   0.0000 117.6000 13.29142335    10
CTC1_L_00488139-01
1 10276U 26033AS  26075.70035880  .00000000  00000+0  00000-0 0  9990
2 10276 100.2000 331.2000 0000000   0.0000 302.4000 13.29142335    13
CTC1_L_00488139-02
1 10277U 26999HQ  26075.70035880  .00000000  00000+0  00000-0 0  9992
2 10277 100.2000 331.2000 0000000   0.0000 122.4000 13.29142335    14
CTC1_L_00488140-01
1 10278U 26209FR  26075.70035880  .00000000  00000+0  00000-0 0  9997
2 10278 100.2000 333.6000 0000000   0.0000 307.2000 13.29142335    14
CTC1_L_00488140-02
1 10279U 25482EU  26075.70035880  .00000000  00000+0  00000-0 0  9990
2 10279 100.2000 333.6000 0000000   0.0000 127.2000 13.29142335    15
CTC1_L_00488141-01
1 10280U 24905GP  26075.70035880  .00000000  00000+0  00000-0 0  9991
2 10280 100.2000 336.0000 0000000   0.0000 312.0000 13.29142335    18
CTC1_L_00488141-02
1 10281U 26511BE  26075.70035880  .00000000  00000+0  00000-0 0  9997
2 10281 100.2000 336.0000 0000000   0.0000 132.0000 13.29142335    19
CTC1_L_00488142-01
1 10282U 26259OJ  26075.70035880  .00000000  00000+0  00000-0 0  9997
2 10282 100.2000 338.4000 0000000   0.0000 316.8000 13.29142335    18
CTC1_L_00488142-02
1 10283U 25161VP  26075.70035880  .00000000  00000+0  00000-0 0  9999
2 10283 100.2000 338.4000 0000000   0.0000 136.8000 13.29142335    19
CTC1_L_00488143-01
1 10284U 23658SZ  26075.70035880  .00000000  00000+0  00000-0 0  9999
2 10284 100.2000 340.8000 0000000   0.0000 321.6000 13.29142335    11
CTC1_L_00488143-02
1 10285U 23649JA  26075.70035880  .00000000  00000+0  00000-0 0  9990
2 10285 100.2000 340.8000 0000000   0.0000 141.6000 13.29142335    12
CTC1_L_00488144-01
1 10286U 23258RQ  26075.70035880  .00000000  00000+0  00000-0 0  9997
2 10286 100.2000 343.2000 0000000   0.0000 326.4000 13.29142335    13
CTC1_L_00488144-02
1 10287U 24380FE  26075.70035880  .00000000  00000+0  00000-0 0  9995
2 10287 100.2000 343.2000 0000000   0.0000 146.4000 13.29142335    14
CTC1_L_00488145-01
1 10288U 24597CU  26075.70035880  .00000000  00000+0  00000-0 0  9996
2 10288 100.2000 345.6000 0000000   0.0000 331.2000 13.29142335    15
CTC1_L_00488145-02
1 10289U 26615UX  26075.70035880  .00000000  00000+0  00000-0 0  9990
2 10289 100.2000 345.6000 0000000   0.0000 151.2000 13.29142335    16
CTC1_L_00488146-01
1 10290U 26215LC  26075.70035880  .00000000  00000+0  00000-0 0  9998
2 10290 100.2000 348.0000 0000000   0.0000 336.0000 13.29142335    18
CTC1_L_00488146-02
1 10291U 24067RA  26075.70035880  .00000000  00000+0  00000-0 0  9992
2 10291 100.2000 348.0000 0000000   0.0000 156.0000 13.29142335    19
CTC1_L_00488147-01
1 10292U 25330VE  26075.70035880  .00000000  00000+0  00000-0 0  9997
2 10292 100.2000 350.4000 0000000   0.0000 340.8000 13.29142335    10
CTC1_L_00488147-02
1 10293U 25577XT  26075.70035880  .00000000  00000+0  00000-0 0  9991
2 10293 100.2000 350.4000 0000000   0.0000 160.8000 13.29142335    11
CTC1_L_00488148-01
1 10294U 24250DR  26075.70035880  .00000000  00000+0  00000-0 0  9999
2 10294 100.2000 352.8000 0000000   0.0000 345.6000 13.29142335    11
CTC1_L_00488148-02
1 10295U 24614OJ  26075.70035880  .00000000  00000+0  00000-0 0  9994
2 10295 100.2000 352.8000 0000000   0.0000 165.6000 13.29142335    12
CTC1_L_00488149-01
1 10296U 26500YR  26075.70035880  .00000000  00000+0  00000-0 0  9991
2 10296 100.2000 355.2000 0000000   0.0000 350.4000 13.29142335    14
CTC1_L_00488149-02
1 10297U 23461UQ  26075.70035880  .00000000  00000+0  00000-0 0  9995
2 10297 100.2000 355.2000 0000000   0.0000 170.4000 13.29142335    15
CTC1_L_00488150-01
1 10298U 26146YX  26075.70035880  .00000000  00000+0  00000-0 0  9999
2 10298 100.2000 357.6000 0000000   0.0000 355.2000 13.29142335    15
CTC1_L_00488150-02
1 10299U 22990SY  26075.70035880  .00000000  00000+0  00000-0 0  9993
2 10299 100.2000 357.6000 0000000   0.0000 175.2000 13.29142335    16
